STARLINK-31024          
1 58786U 24011X   26068.26762167 -.00000139  00000+0  74227-5 0  9991
2 58786  53.1619  13.6627 0001160  88.5246 271.5888 15.30191356120238
FLOCK 4BE-27            
1 60513U 24149AX  26068.75339182  .00011439  00000+0  36576-3 0  9992
2 60513  97.3862 150.6783 0002732 305.8980  54.2008 15.32593322 86906
